METEOSAT-9 (MSG-2)      
1 28912U 05049B   26104.95222898  .00000136  00000+0  00000+0 0  9996
2 28912   9.2193  54.7736 0000808  54.3612 122.4348  1.00267876  6363
EUTELSAT 174A           
1 28924U 05052A   26105.57822569  .00000018  00000+0  00000+0 0  9992
2 28924   4.0604  77.2750 0006324 307.7172 200.9099  1.00270146 51704
ECHOSTAR 10             
1 28935U 06003A   26105.56305153 -.00000049  00000+0  00000+0 0  9990
2 28935   0.0500  49.6135 0001809 301.0227 305.5917  1.00270361 73836
SPAINSAT                
1 28945U 06007A   26104.52089408 -.00000212  00000+0  00000+0 0  9994
2 28945   0.3972  87.4763 0004871 310.5823 321.9807  1.00272211 73587
JCSAT-5A                
1 29045U 06010A   26105.58377807 -.00000321  00000+0  00000+0 0  9991
2 29045   0.9460  84.8794 0001394 326.2933 134.8060  1.00271472 73147
ASTRA 1KR               
1 29055U 06012A   26105.51733828  .00000126  00000+0  00000+0 0  9998
2 29055   0.3108  82.2926 0003415 303.2007  23.4566  1.00274552 45069
GALAXY 16 (G-16)        
1 29236U 06023A   26105.56530487 -.00000121  00000+0  00000+0 0  9998
2 29236   0.0192 219.0695 0002643 166.3893 282.7825  1.00271087 72345
EUTELSAT 33F            
1 29270U 06032A   26105.59147832  .00000163  00000+0  00000+0 0  9992
2 29270   1.4988  82.8969 0003468 298.7611  68.1440  1.00268750 46685
JCSAT-3A                
1 29272U 06033A   26105.58377807  .00000000  00000+0  00000+0 0  9991
2 29272   0.0191 241.7284 0002056 157.1136 143.0558  1.00270577 47118
SYRACUSE 3B             
1 29273U 06033B   26105.61343880 -.00000228  00000+0  00000+0 0  9993
2 29273   2.7423  80.9151 0004517 282.5488 205.2567  0.98628814 72047
KOREASAT 5 (MUGUNGWHA 5)
1 29349U 06034A   26105.60725171 -.00000350  00000+0  00000+0 0  9990
2 29349   1.6225  83.7232 0001598 334.4187 117.2945  1.00270061 40698
DIRECTV 9S              
1 29494U 06043A   26105.56478487 -.00000105  00000+0  00000+0 0  9999
2 29494   2.2583  81.6233 0003886 319.8965 264.3360  1.00271269 50758
OPTUS D1                
1 29495U 06043B   26105.57128109 -.00000175  00000+0  00000+0 0  9991
2 29495   2.8728  80.3957 0003834 305.4245 175.5864  1.00271876 71490
BADR-4                  
1 29526U 06051A   26105.59009164  .00000154  00000+0  00000+0 0  9992
2 29526   1.8425  81.7557 0006673 294.7181  66.1281  1.00278416 50630
WILDBLUE-1              
1 29643U 06054A   26105.56287819 -.00000041  00000+0  00000+0 0  9993
2 29643   2.6407  81.2412 0001499 309.3073 264.6293  1.00272147 53162
SKYNET 5A               
1 30794U 07007B   26105.46109174 -.00000262  00000+0  00000+0 0  9992
2 30794   5.1430  74.4849 0004031 320.6499  69.7136  1.00272565 70079
ANIK F3                 
1 31102U 07009A   26105.49003815  .00000006  00000+0  00000+0 0  9991
2 31102   1.0343  84.5331 0002687 303.5850 233.2494  1.00272600 45937
ASTRA 1L                
1 31306U 07016A   26105.43743164 -.00000178  00000+0  00000+0 0  9998
2 31306   1.1585  81.9818 0004466 320.8720 293.6915  1.00270905 44357
GALAXY 17 (G-17)        
1 31307U 07016B   26105.56799155 -.00000198  00000+0  00000+0 0  9996
2 31307   2.8129  80.6567 0004019 317.6992 284.8572  1.00272032 69177
INTELSAT 11 (IS-11)     
1 32253U 07044B   26105.61125669  .00000055  00000+0  00000+0 0  9998
2 32253   3.4018  79.4034 0002114 220.3160 164.9973  0.99048810 67834
WGS F1 (USA 195)        
1 32258U 07046A   26105.43387829 -.00000261  00000+0  00000+0 0  9993
2 32258   0.0748  80.7571 0000306 194.9229  41.6427  1.00271272 51703
SKYNET 5B               
1 32294U 07056B   26105.58983164  .00000150  00000+0  00000+0 0  9990
2 32294   5.0947  74.2314 0003850 305.9522  60.9835  1.00271091 67577
ASTRA 4A                
1 32299U 07057A   26105.37188177  .00000039  00000+0  00000+0 0  9990
2 32299   0.0340  75.6592 0002692 322.6103 303.9665  1.00273834 51011
HORIZONS-2              
1 32388U 07063B   26105.57024490 -.00000245  00000+0  00000+0 0  9995
2 32388   2.4399  81.3659 0003062 314.6470 299.2285  1.00271295 67187
THURAYA-3               
1 32404U 08001A   26105.31912712 -.00000293  00000+0  00000+0 0  9995
2 32404   5.8845  35.6797 0002083 350.9072  30.2865  1.00269877 66861
THOR 5                  
1 32487U 08006A   26105.58471829 -.00000003  00000+0  00000+0 0  9998
2 32487   0.0181 239.2388 0002417 149.4707  24.7875  1.00270557 66683
AMC-14                  
1 32708U 08011A   26104.88132696  .00000080  00000+0  00000+0 0  9992
2 32708  23.9501  21.2891 0049847 355.6502 192.0528  1.00337835 67531
DIRECTV 11              
1 32729U 08013A   26105.56521821 -.00000120  00000+0  00000+0 0  9991
2 32729   0.0177  58.1527 0000285 315.2619 294.6195  1.00272055 44961
ICO G1                  
1 32763U 08016A   26105.20044697 -.00000163  00000+0  00000+0 0  9991
2 32763   5.5175  36.2677 0002629 324.3704 182.0157  1.00271039 65917
VINASAT-1               
1 32767U 08018A   26105.58377807 -.00000322  00000+0  00000+0 0  9997
2 32767   0.0026 189.4785 0002251 229.6242 126.7427  1.00269371 65968
STAR ONE C2             
1 32768U 08018B   26105.50069821 -.00000270  00000+0  00000+0 0  9996
2 32768   1.0798  82.9493 0002702 298.8984 297.0748  1.00273271 66021
AMOS-3                  
1 32794U 08022A   26105.31433594 -.00000029  00000+0  00000+0 0  9993
2 32794   0.2918  86.8384 0000411 173.0655  52.6330  1.00271562 81706
GALAXY 18 (G-18)        
1 32951U 08024A   26105.56049845  .00000031  00000+0  00000+0 0  9991
2 32951   0.0214 257.3182 0003052 130.7645 254.4166  1.00271728 45222
ZHONGXING-9             
1 33051U 08028A   26105.60317836 -.00000243  00000+0  00000+0 0  9996
2 33051   0.6071  86.0741 0006929 275.5135 151.7284  1.00272673 65410
SKYNET 5C               
1 33055U 08030A   26105.36746175 -.00000131  00000+0  00000+0 0  9994
2 33055   3.6274  77.7600 0003637 307.3719 292.9002  1.00270562 65329
TURKSAT 3A              
1 33056U 08030B   26105.09156838  .00000151  00000+0  00000+0 0  9997
2 33056   0.0506  61.3032 0005448 346.8743 230.0380  1.00273819 51723
INTELSAT 25 (IS-25)     
1 33153U 08034A   26105.15077978 -.00000222  00000+0  00000+0 0  9993
2 33153   2.5441  81.0458 0003001 261.5948 243.2589  1.00221450 65063
ECHOSTAR 11             
1 33207U 08035A   26105.56313819 -.00000051  00000+0  00000+0 0  9996
2 33207   0.8419  84.7968 0002294 286.0744 285.7853  1.00271554 50580
SUPERBIRD-C2            
1 33274U 08038A   26105.54056502 -.00000298  00000+0  00000+0 0  9997
2 33274   2.1986  82.0109 0003764 359.3040  93.0016  1.00273347105104
INMARSAT 4-F3           
1 33278U 08039A   26105.42287157 -.00000132  00000+0  00000+0 0  9998
2 33278   4.2406  31.3709 0003039   2.1155 224.3352  1.00271340 45911
NIMIQ 4                 
1 33373U 08044A   26104.92691382 -.00000215  00000+0  00000+0 0  9995
2 33373   0.0240 111.3716 0002314 273.2215  70.1761  1.00270314 64346
GALAXY 19 (G-19)        
1 33376U 08045A   26105.56565154 -.00000133  00000+0  00000+0 0  9996
2 33376   0.0208 251.0742 0002966 144.9771 274.3111  1.00272792 64279
ASTRA 1M                
1 33436U 08057A   26105.58870498  .00000127  00000+0  00000+0 0  9990
2 33436   0.1345  77.3545 0003203 356.0813   1.6512  1.00269437 45106
EUTELSAT HOTBIRD 13C    
1 33459U 08065A   26105.19469094 -.00000275  00000+0  00000+0 0  9992
2 33459   2.7877  79.9059 0004079 313.8626 189.3781  1.00268821 46718
EXPRESS-AM44            
1 33595U 09007A   26105.36876175 -.00000080  00000+0  00000+0 0  9995
2 33595   3.3010  79.1405 0004270 308.1285 298.0376  1.00271946 51652
NSS-9                   
1 33749U 09008A   26105.54906008  .00000079  00000+0  00000+0 0  9993
2 33749   1.0988  83.1759 0002159 289.3233 211.9417  1.00271694 62894
TELSTAR 11N             
1 34111U 09009A   26105.33100360  .00000000  00000+0  00000+0 0  9996
2 34111   0.0180 217.7199 0002121 152.2475 275.1409  1.00268575 45617
WGS F2 (USA 204)        
1 34713U 09017A   26105.59624500  .00000000  00000+0  00000+0 0  9998
2 34713   0.0175 232.1142 0000215 288.1776 315.6209  1.00271052 44995
SES-7 (PROTOSTAR 2)     
1 34941U 09027A   26105.60036147 -.00000339  00000+0  00000+0 0  9994
2 34941   0.0921  77.7066 0001096 209.5835 240.8804  1.00271681 62006
MEASAT-3A               
1 35362U 09032A   26105.52336324  .00000000  00000+0  00000+0 0  9993
2 35362   0.0089  13.9765 0003202  12.2574 165.8627  1.00269499  7403
GOES 14                 
1 35491U 09033A   26105.54906008  .00000010  00000+0  00000+0 0  9992
2 35491   1.5275  83.7729 0001667 303.9594 190.5576  1.00114167  5967
FM-5                    
1 35493U 09034A   26105.56781822 -.00000194  00000+0  00000+0 0  9996
2 35493   0.0174 260.8992 0000516 341.6810  79.4089  1.00270053 46015
TERRESTAR-1             
1 35496U 09035A   26105.47128061 -.00000047  00000+0  00000+0 0  9997
2 35496   5.1371  48.7980 0002953 338.5759 234.8946  1.00270561 61501
ASIASAT 5               
1 35696U 09042A   26105.66380374 -.00000301  00000+0  00000+0 0  9998
2 35696   0.0369  99.0656 0001727 276.5398 167.6943  1.00272929 61084
JCSAT-12 (JCSAT-RA)     
1 35755U 09044A   26105.58377807  .00000000  00000+0  00000+0 0  9999
2 35755   0.0141 229.6385 0000858  81.1599 235.1576  1.00269058 60985
OPTUS D3                
1 35756U 09044B   26105.19975450 -.00000142  00000+0  00000+0 0  9993
2 35756   0.8558 270.1310 0003157 110.5573  50.7110  1.00271294 60934
NIMIQ 5                 
1 35873U 09050A   26105.21118106  .00000000  00000+0  00000+0 0  9992
2 35873   0.0167 209.6811 0002791 185.1064 171.8957  1.00265817 60715
AMAZONAS 2              
1 35942U 09054A   26105.50156487 -.00000275  00000+0  00000+0 0  9994
2 35942   1.6511  83.8139 0003358 299.1523 300.4883  1.00272058 60558
COMSATBW-1              
1 35943U 09054B   26105.59737167  .00000000  00000+0  00000+0 0  9999
2 35943   0.0164 221.1493 0003682 177.0790  83.6349  1.00275912 60689
